EXO-0                   
1 59175U 23174DK  26068.71046781  .00011582  00000+0  36716-3 0  9992
2 59175  97.3864 148.9039 0009878 157.1125 203.0559 15.32821991129797
STARLINK-35329          
1 65908U 25224AC  26068.22542313  .00042867  00000+0  14505-2 0  9990
2 65908  53.1616  13.4660 0001157  87.6875 272.4259 15.30213963 24793
